[{"OBJECT_NAME":"STARLINK-2567","OBJECT_ID":"2021-036A","EPOCH":"2026-03-09T05:01:13.564992","MEAN_MOTION":15.06409165,"ECCENTRICITY":0.00013167,"INCLINATION":53.0552,"RA_OF_ASC_NODE":48.774,"ARG_OF_PERICENTER":114.84,"MEAN_ANOMALY":245.2726,"EPHEMERIS_TYPE":0,"CLASSIFICATION_TYPE":"U","NORAD_CAT_ID":48276,"ELEMENT_SET_NO":999,"REV_AT_EPOCH":26873,"BSTAR":-4.4168655e-5,"MEAN_MOTION_DOT":-9.39e-6,"MEAN_MOTION_DDOT":0},{"OBJECT_NAME":"CZ-6A DEB","OBJECT_ID":"2022-151MM","EPOCH":"2026-03-09T16:36:35.308512","MEAN_MOTION":15.08432741,"ECCENTRICITY":0.0037582,"INCLINATION":98.6255,"RA_OF_ASC_NODE":147.7512,"ARG_OF_PERICENTER":182.2642,"MEAN_ANOMALY":177.8419,"EPHEMERIS_TYPE":0,"CLASSIFICATION_TYPE":"U","NORAD_CAT_ID":54585,"ELEMENT_SET_NO":999,"REV_AT_EPOCH":10505,"BSTAR":0.0062350664,"MEAN_MOTION_DOT":0.00099853,"MEAN_MOTION_DDOT":0}]
